[{"OBJECT_NAME":"CAS500-1","OBJECT_ID":"2021-022A","EPOCH":"2026-03-09T23:57:39.791808","MEAN_MOTION":15.20304346,"ECCENTRICITY":0.00036012,"INCLINATION":97.4003,"RA_OF_ASC_NODE":326.196,"ARG_OF_PERICENTER":278.8383,"MEAN_ANOMALY":81.2444,"EPHEMERIS_TYPE":0,"CLASSIFICATION_TYPE":"U","NORAD_CAT_ID":47932,"ELEMENT_SET_NO":999,"REV_AT_EPOCH":27569,"BSTAR":0.00044667126,"MEAN_MOTION_DOT":9.645e-5,"MEAN_MOTION_DDOT":0},{"OBJECT_NAME":"FLOCK 4H-2","OBJECT_ID":"2025-276AR","EPOCH":"2026-03-09T18:25:48.775296","MEAN_MOTION":15.19528345,"ECCENTRICITY":8.129e-5,"INCLINATION":97.4241,"RA_OF_ASC_NODE":144.0888,"ARG_OF_PERICENTER":23.7853,"MEAN_ANOMALY":336.3419,"EPHEMERIS_TYPE":0,"CLASSIFICATION_TYPE":"U","NORAD_CAT_ID":66705,"ELEMENT_SET_NO":999,"REV_AT_EPOCH":1533,"BSTAR":0.00041565805,"MEAN_MOTION_DOT":8.768e-5,"MEAN_MOTION_DDOT":0}]
